{"fetched_at":"2026-03-29T02:12:04Z","count":15717,"tles":[{"name":"STARLINK-35750","line1":"1 66209U 25244D   26087.43751805  .00014371  00000+0  49636-3 0  9992","line2":"2 66209  53.1570 142.5655 0000979  59.9799 300.1299 15.30202710 24536","category":"Starlink"}]}