{
  "norad_id": 66209,
  "name": "STARLINK-35750",
  "history": [
    {
      "epoch": "2026-03-28T10:30:01.559520",
      "apogee_km": 475.8784685026967,
      "perigee_km": 474.53548721679545,
      "latitude_deg": 18.824367703206917,
      "longitude_deg": 122.90173279982992,
      "semi_major_axis_km": 6853.343977859746,
      "eccentricity": 9.798e-05,
      "inclination_deg": 53.157,
      "raan_deg": 142.5655,
      "arg_perigee_deg": 59.9799,
      "mean_anomaly_deg": 300.1299,
      "mean_motion_rev_day": 15.3020271
    }
  ]
}